STARLINK-4089           
1 52831U 22062B   23304.38358036  .00000046  00000+0  20966-4 0  9995
2 52831  53.2182 296.1821 0001868  97.1135 263.0070 15.08841882 75904
STARLINK-4083           
1 52832U 22062C   23304.24741934  .00001199  00000+0  93428-4 0  9997
2 52832  53.2165 296.7944 0001481 100.8032 259.3127 15.08839971 75881
STARLINK-4086           
1 52833U 22062D   23304.30998033  .00001451  00000+0  10924-3 0  9999
2 52833  53.2168 296.5131 0001704  93.5626 266.5562 15.08840083 75896
STARLINK-4108           
1 52834U 22062E   23304.70005335 -.00003687  00000+0 -21356-3 0  9994
2 52834  53.2176 294.7634 0001887  95.7414 264.3793 15.08852184 75959
STARLINK-4080           
1 52835U 22062F   23304.69638312  .00000926  00000+0  76275-4 0  9992
2 52835  53.2183 294.7830 0001739  98.7952 261.3237 15.08839752 75958
STARLINK-4043           
1 52836U 22062G   23304.42774179  .00001077  00000+0  85785-4 0  9990
2 52836  53.2172 295.9870 0001899  88.1142 272.0068 15.08836638 75912
STARLINK-4036           
1 52837U 22062H   23304.28790167 -.00002456  00000+0 -13625-3 0  9997
2 52837  53.2170 296.6192 0001930 103.5348 256.5859 15.08834552 75897
STARLINK-4092           
1 52838U 22062J   23304.35781554  .00000402  00000+0  43328-4 0  9997
2 52838  53.2173 296.2947 0001647  94.9607 265.1573 15.08841946 75907
STARLINK-4048           
1 52839U 22062K   23304.28053716  .00002286  00000+0  16165-3 0  9992
2 52839  53.2167 296.6498 0001684  95.9351 264.1833 15.08845105 75891
STARLINK-4049           
1 52840U 22062L   23304.28517884  .00000810  00000+0  68996-4 0  9996
2 52840  53.2169 296.6405 0001557  91.4708 268.6462 15.08840401 75890
STARLINK-4065           
1 52841U 22062M   23304.26949978  .00002157  00000+0  15355-3 0  9994
2 52841  53.2154 296.6974 0001608  96.7774 263.3401 15.08843243 75896
STARLINK-4046           
1 52842U 22062N   23304.28420994  .00001087  00000+0  86411-4 0  9992
2 52842  53.2176 296.5569 0001626  96.8480 263.2697 15.08840031 75893
STARLINK-4188           
1 52843U 22062P   23304.39462161  .00006594  00000+0  43199-3 0  9990
2 52843  53.2171 296.1361 0001836  95.6383 264.4818 15.08839462 75914
STARLINK-4208           
1 52844U 22062Q   23304.27685858  .00002630  00000+0  18326-3 0  9999
2 52844  53.2159 296.6648 0001538 103.7579 256.3584 15.08842505 75890
