[
  {
    "OBJECT_NAME": "STARLINK-4089",
    "OBJECT_ID": "2022-062B",
    "EPOCH": "2023-10-31T09:12:21.343104",
    "MEAN_MOTION": 15.08841882,
    "ECCENTRICITY": 0.0001868,
    "INCLINATION": 53.2182,
    "RA_OF_ASC_NODE": 296.1821,
    "ARG_OF_PERICENTER": 97.1135,
    "MEAN_ANOMALY": 263.007,
    "EPHEMERIS_TYPE": 0,
    "CLASSIFICATION_TYPE": "U",
    "NORAD_CAT_ID": 52831,
    "ELEMENT_SET_NO": 999,
    "REV_AT_EPOCH": 7590,
    "BSTAR": 2.0966e-5,
    "MEAN_MOTION_DOT": 4.6e-7,
    "MEAN_MOTION_DDOT": 0
  },
  {
    "OBJECT_NAME": "STARLINK-4083",
    "OBJECT_ID": "2022-062C",
    "EPOCH": "2023-10-31T05:56:17.030976",
    "MEAN_MOTION": 15.08839971,
    "ECCENTRICITY": 0.0001481,
    "INCLINATION": 53.2165,
    "RA_OF_ASC_NODE": 296.7944,
    "ARG_OF_PERICENTER": 100.8032,
    "MEAN_ANOMALY": 259.3127,
    "EPHEMERIS_TYPE": 0,
    "CLASSIFICATION_TYPE": "U",
    "NORAD_CAT_ID": 52832,
    "ELEMENT_SET_NO": 999,
    "REV_AT_EPOCH": 7588,
    "BSTAR": 9.3428e-5,
    "MEAN_MOTION_DOT": 1.199e-5,
    "MEAN_MOTION_DDOT": 0
  },
  {
    "OBJECT_NAME": "STARLINK-4086",
    "OBJECT_ID": "2022-062D",
    "EPOCH": "2023-10-31T07:26:22.300512",
    "MEAN_MOTION": 15.08840083,
    "ECCENTRICITY": 0.0001704,
    "INCLINATION": 53.2168,
    "RA_OF_ASC_NODE": 296.5131,
    "ARG_OF_PERICENTER": 93.5626,
    "MEAN_ANOMALY": 266.5562,
    "EPHEMERIS_TYPE": 0,
    "CLASSIFICATION_TYPE": "U",
    "NORAD_CAT_ID": 52833,
    "ELEMENT_SET_NO": 999,
    "REV_AT_EPOCH": 7589,
    "BSTAR": 0.00010924,
    "MEAN_MOTION_DOT": 1.451e-5,
    "MEAN_MOTION_DDOT": 0
  },
  {
    "OBJECT_NAME": "STARLINK-4108",
    "OBJECT_ID": "2022-062E",
    "EPOCH": "2023-10-31T16:48:04.609440",
    "MEAN_MOTION": 15.08852184,
    "ECCENTRICITY": 0.0001887,
    "INCLINATION": 53.2176,
    "RA_OF_ASC_NODE": 294.7634,
    "ARG_OF_PERICENTER": 95.7414,
    "MEAN_ANOMALY": 264.3793,
    "EPHEMERIS_TYPE": 0,
    "CLASSIFICATION_TYPE": "U",
    "NORAD_CAT_ID": 52834,
    "ELEMENT_SET_NO": 999,
    "REV_AT_EPOCH": 7595,
    "BSTAR": -0.00021356,
    "MEAN_MOTION_DOT": -3.687e-5,
    "MEAN_MOTION_DDOT": 0
  },
  {
    "OBJECT_NAME": "STARLINK-4080",
    "OBJECT_ID": "2022-062F",
    "EPOCH": "2023-10-31T16:42:47.501568",
    "MEAN_MOTION": 15.08839752,
    "ECCENTRICITY": 0.0001739,
    "INCLINATION": 53.2183,
    "RA_OF_ASC_NODE": 294.783,
    "ARG_OF_PERICENTER": 98.7952,
    "MEAN_ANOMALY": 261.3237,
    "EPHEMERIS_TYPE": 0,
    "CLASSIFICATION_TYPE": "U",
    "NORAD_CAT_ID": 52835,
    "ELEMENT_SET_NO": 999,
    "REV_AT_EPOCH": 7595,
    "BSTAR": 7.6275e-5,
    "MEAN_MOTION_DOT": 9.26e-6,
    "MEAN_MOTION_DDOT": 0
  },
  {
    "OBJECT_NAME": "STARLINK-4043",
    "OBJECT_ID": "2022-062G",
    "EPOCH": "2023-10-31T10:15:56.890656",
    "MEAN_MOTION": 15.08836638,
    "ECCENTRICITY": 0.0001899,
    "INCLINATION": 53.2172,
    "RA_OF_ASC_NODE": 295.987,
    "ARG_OF_PERICENTER": 88.1142,
    "MEAN_ANOMALY": 272.0068,
    "EPHEMERIS_TYPE": 0,
    "CLASSIFICATION_TYPE": "U",
    "NORAD_CAT_ID": 52836,
    "ELEMENT_SET_NO": 999,
    "REV_AT_EPOCH": 7591,
    "BSTAR": 8.5785e-5,
    "MEAN_MOTION_DOT": 1.077e-5,
    "MEAN_MOTION_DDOT": 0
  },
  {
    "OBJECT_NAME": "STARLINK-4036",
    "OBJECT_ID": "2022-062H",
    "EPOCH": "2023-10-31T06:54:34.704288",
    "MEAN_MOTION": 15.08834552,
    "ECCENTRICITY": 0.000193,
    "INCLINATION": 53.217,
    "RA_OF_ASC_NODE": 296.6192,
    "ARG_OF_PERICENTER": 103.5348,
    "MEAN_ANOMALY": 256.5859,
    "EPHEMERIS_TYPE": 0,
    "CLASSIFICATION_TYPE": "U",
    "NORAD_CAT_ID": 52837,
    "ELEMENT_SET_NO": 999,
    "REV_AT_EPOCH": 7589,
    "BSTAR": -0.00013625,
    "MEAN_MOTION_DOT": -2.456e-5,
    "MEAN_MOTION_DDOT": 0
  },
  {
    "OBJECT_NAME": "STARLINK-4092",
    "OBJECT_ID": "2022-062J",
    "EPOCH": "2023-10-31T08:35:15.262656",
    "MEAN_MOTION": 15.08841946,
    "ECCENTRICITY": 0.0001647,
    "INCLINATION": 53.2173,
    "RA_OF_ASC_NODE": 296.2947,
    "ARG_OF_PERICENTER": 94.9607,
    "MEAN_ANOMALY": 265.1573,
    "EPHEMERIS_TYPE": 0,
    "CLASSIFICATION_TYPE": "U",
    "NORAD_CAT_ID": 52838,
    "ELEMENT_SET_NO": 999,
    "REV_AT_EPOCH": 7590,
    "BSTAR": 4.3328e-5,
    "MEAN_MOTION_DOT": 4.02e-6,
    "MEAN_MOTION_DDOT": 0
  },
  {
    "OBJECT_NAME": "STARLINK-4048",
    "OBJECT_ID": "2022-062K",
    "EPOCH": "2023-10-31T06:43:58.410624",
    "MEAN_MOTION": 15.08845105,
    "ECCENTRICITY": 0.0001684,
    "INCLINATION": 53.2167,
    "RA_OF_ASC_NODE": 296.6498,
    "ARG_OF_PERICENTER": 95.9351,
    "MEAN_ANOMALY": 264.1833,
    "EPHEMERIS_TYPE": 0,
    "CLASSIFICATION_TYPE": "U",
    "NORAD_CAT_ID": 52839,
    "ELEMENT_SET_NO": 999,
    "REV_AT_EPOCH": 7589,
    "BSTAR": 0.00016165,
    "MEAN_MOTION_DOT": 2.286e-5,
    "MEAN_MOTION_DDOT": 0
  },
  {
    "OBJECT_NAME": "STARLINK-4049",
    "OBJECT_ID": "2022-062L",
    "EPOCH": "2023-10-31T06:50:39.451776",
    "MEAN_MOTION": 15.08840401,
    "ECCENTRICITY": 0.0001557,
    "INCLINATION": 53.2169,
    "RA_OF_ASC_NODE": 296.6405,
    "ARG_OF_PERICENTER": 91.4708,
    "MEAN_ANOMALY": 268.6462,
    "EPHEMERIS_TYPE": 0,
    "CLASSIFICATION_TYPE": "U",
    "NORAD_CAT_ID": 52840,
    "ELEMENT_SET_NO": 999,
    "REV_AT_EPOCH": 7589,
    "BSTAR": 6.8996e-5,
    "MEAN_MOTION_DOT": 8.1e-6,
    "MEAN_MOTION_DDOT": 0
  },
  {
    "OBJECT_NAME": "STARLINK-4065",
    "OBJECT_ID": "2022-062M",
    "EPOCH": "2023-10-31T06:28:04.780992",
    "MEAN_MOTION": 15.08843243,
    "ECCENTRICITY": 0.0001608,
    "INCLINATION": 53.2154,
    "RA_OF_ASC_NODE": 296.6974,
    "ARG_OF_PERICENTER": 96.7774,
    "MEAN_ANOMALY": 263.3401,
    "EPHEMERIS_TYPE": 0,
    "CLASSIFICATION_TYPE": "U",
    "NORAD_CAT_ID": 52841,
    "ELEMENT_SET_NO": 999,
    "REV_AT_EPOCH": 7589,
    "BSTAR": 0.00015355,
    "MEAN_MOTION_DOT": 2.157e-5,
    "MEAN_MOTION_DDOT": 0
  },
  {
    "OBJECT_NAME": "STARLINK-4046",
    "OBJECT_ID": "2022-062N",
    "EPOCH": "2023-10-31T06:49:15.738816",
    "MEAN_MOTION": 15.08840031,
    "ECCENTRICITY": 0.0001626,
    "INCLINATION": 53.2176,
    "RA_OF_ASC_NODE": 296.5569,
    "ARG_OF_PERICENTER": 96.848,
    "MEAN_ANOMALY": 263.2697,
    "EPHEMERIS_TYPE": 0,
    "CLASSIFICATION_TYPE": "U",
    "NORAD_CAT_ID": 52842,
    "ELEMENT_SET_NO": 999,
    "REV_AT_EPOCH": 7589,
    "BSTAR": 8.6411e-5,
    "MEAN_MOTION_DOT": 1.087e-5,
    "MEAN_MOTION_DDOT": 0
  },
  {
    "OBJECT_NAME": "STARLINK-4188",
    "OBJECT_ID": "2022-062P",
    "EPOCH": "2023-10-31T09:28:15.307104",
    "MEAN_MOTION": 15.08839462,
    "ECCENTRICITY": 0.0001836,
    "INCLINATION": 53.2171,
    "RA_OF_ASC_NODE": 296.1361,
    "ARG_OF_PERICENTER": 95.6383,
    "MEAN_ANOMALY": 264.4818,
    "EPHEMERIS_TYPE": 0,
    "CLASSIFICATION_TYPE": "U",
    "NORAD_CAT_ID": 52843,
    "ELEMENT_SET_NO": 999,
    "REV_AT_EPOCH": 7591,
    "BSTAR": 0.00043199,
    "MEAN_MOTION_DOT": 6.594e-5,
    "MEAN_MOTION_DDOT": 0
  },
  {
    "OBJECT_NAME": "STARLINK-4208",
    "OBJECT_ID": "2022-062Q",
    "EPOCH": "2023-10-31T06:38:40.581312",
    "MEAN_MOTION": 15.08842505,
    "ECCENTRICITY": 0.0001538,
    "INCLINATION": 53.2159,
    "RA_OF_ASC_NODE": 296.6648,
    "ARG_OF_PERICENTER": 103.7579,
    "MEAN_ANOMALY": 256.3584,
    "EPHEMERIS_TYPE": 0,
    "CLASSIFICATION_TYPE": "U",
    "NORAD_CAT_ID": 52844,
    "ELEMENT_SET_NO": 999,
    "REV_AT_EPOCH": 7589,
    "BSTAR": 0.00018326,
    "MEAN_MOTION_DOT": 2.63e-5,
    "MEAN_MOTION_DDOT": 0
  }
]
